{
  "norad_id": 45608,
  "name": "COSMOS 2546",
  "history": [
    {
      "epoch": "2026-03-23T18:48:41.768064",
      "apogee_km": 38880.76016515793,
      "perigee_km": 1472.4071413045913,
      "latitude_deg": 45.101319984247475,
      "longitude_deg": 136.04640896013007,
      "semi_major_axis_km": 26554.720653231263,
      "eccentricity": 0.70436352,
      "inclination_deg": 63.1526,
      "raan_deg": 77.4882,
      "arg_perigee_deg": 265.8985,
      "mean_anomaly_deg": 18.1857,
      "mean_motion_rev_day": 2.00627359
    }
  ]
}