{"fetched_at":"2026-03-29T02:12:04Z","count":15717,"tles":[{"name":"COSMOS 2546","line1":"1 45608U 20031A   26082.78381676 -.00000148  00000+0  00000+0 0  9995","line2":"2 45608  63.1526  77.4882 7043635 265.8985  18.1857  2.00627359 42757","category":"Other"}]}